[
    {
        "Altitude(m)": 604983.0529886329,
        "Argument of Periapsis(deg)": 0.0,
        "Eccentricity": 0.0,
        "Inclination(deg)": 60.0,
        "Latitude(deg)": -0.09266415185888212,
        "Longitude(deg)": -159.91608378349628,
        "Mean Anomaly(deg)": 179.99999999999997,
        "RAAN(deg)": 120.0,
        "Satellite Name": "Test1 539",
        "Satellite Number": 539,
        "Semi-Major Axis(m)": 6980739.136638005,
        "Time(s)": 0
    },
    {
        "Altitude(m)": 605055.3325665743,
        "Argument of Periapsis(deg)": 0.00010418945913296404,
        "Eccentricity": 0.0,
        "Inclination(deg)": 60.0,
        "Latitude(deg)": -0.6330745661941909,
        "Longitude(deg)": -159.6479599472434,
        "Mean Anomaly(deg)": 180.62010614546185,
        "RAAN(deg)": 119.99957995086024,
        "Satellite Name": "Test1 539",
        "Satellite Number": 539,
        "Semi-Major Axis(m)": 6980739.136638005,
        "Time(s)": 10
    },
    {
        "Altitude(m)": 605130.8212128781,
        "Argument of Periapsis(deg)": 0.0002083789182659281,
        "Eccentricity": 0.0,
        "Inclination(deg)": 60.0,
        "Latitude(deg)": -1.1734540598730199,
        "Longitude(deg)": -159.37977847237875,
        "Mean Anomaly(deg)": 181.24021229092364,
        "RAAN(deg)": 119.99915990172052,
        "Satellite Name": "Test1 539",
        "Satellite Number": 539,
        "Semi-Major Axis(m)": 6980739.136638005,
        "Time(s)": 20
    },
    {
        "Altitude(m)": 605209.5079641652,
        "Argument of Periapsis(deg)": 0.00031256837739889213,
        "Eccentricity": 0.0,
        "Inclination(deg)": 60.0,
        "Latitude(deg)": -1.713785552543793,
        "Longitude(deg)": -159.111484971239,
        "Mean Anomaly(deg)": 181.86031843638548,
        "RAAN(deg)": 119.99873985258075,
        "Satellite Name": "Test1 539",
        "Satellite Number": 539,
        "Semi-Major Axis(m)": 6980739.136638005,
        "Time(s)": 30
    },
    {
        "Altitude(m)": 605291.3803331212,
        "Argument of Periapsis(deg)": 0.0004167578365318562,
        "Eccentricity": 0.0,
        "Inclination(deg)": 60.0,
        "Latitude(deg)": -2.254051945804636,
        "Longitude(deg)": -158.84302448836846,
        "Mean Anomaly(deg)": 182.48042458184733,
        "RAAN(deg)": 119.99831980344103,
        "Satellite Name": "Test1 539",
        "Satellite Number": 539,
        "Semi-Major Axis(m)": 6980739.136638005,
        "Time(s)": 40
    },
    {
        "Altitude(m)": 605376.4243118305,
        "Argument of Periapsis(deg)": 0.0005209472956648203,
        "Eccentricity": 0.0,
        "Inclination(deg)": 60.0,
        "Latitude(deg)": -2.794236113290148,
        "Longitude(deg)": -158.57434247709864,
        "Mean Anomaly(deg)": 183.10053072730918,
        "RAAN(deg)": 119.99789975430127,
        "Satellite Name": "Test1 539",
        "Satellite Number": 539,
        "Semi-Major Axis(m)": 6980739.136638005,
        "Time(s)": 50
    },
    {
        "Altitude(m)": 605464.6243758393,
        "Argument of Periapsis(deg)": 0.0006251367547977843,
        "Eccentricity": 0.0,
        "Inclination(deg)": 60.0,
        "Latitude(deg)": -3.3343208907201545,
        "Longitude(deg)": -158.30538426317156,
        "Mean Anomaly(deg)": 183.72063687277102,
        "RAAN(deg)": 119.99747970516155,
        "Satellite Name": "Test1 539",
        "Satellite Number": 539,
        "Semi-Major Axis(m)": 6980739.136638005,
        "Time(s)": 60
    },
    {
        "Altitude(m)": 605555.9634889769,
        "Argument of Periapsis(deg)": 0.0007293262139307483,
        "Eccentricity": 0.0,
        "Inclination(deg)": 60.0,
        "Latitude(deg)": -3.87428906589596,
        "Longitude(deg)": -158.03609450825064,
        "Mean Anomaly(deg)": 184.34074301823284,
        "RAAN(deg)": 119.99705965602178,
        "Satellite Name": "Test1 539",
        "Satellite Number": 539,
        "Semi-Major Axis(m)": 6980739.136638005,
        "Time(s)": 70
    },
    {
        "Altitude(m)": 605650.4231089138,
        "Argument of Periapsis(deg)": 0.0008335156730637124,
        "Eccentricity": 0.0,
        "Inclination(deg)": 60.0,
        "Latitude(deg)": -4.414123368626145,
        "Longitude(deg)": -157.76641818616395,
        "Mean Anomaly(deg)": 184.96084916369463,
        "RAAN(deg)": 119.99663960688207,
        "Satellite Name": "Test1 539",
        "Satellite Number": 539,
        "Semi-Major Axis(m)": 6980739.136638005,
        "Time(s)": 80
    },
    {
        "Altitude(m)": 605747.9831934631,
        "Argument of Periapsis(deg)": 0.0009377051321966765,
        "Eccentricity": 0.0,
        "Inclination(deg)": 60.0,
        "Latitude(deg)": -4.953806460574625,
        "Longitude(deg)": -157.49630004610486,
        "Mean Anomaly(deg)": 185.58095530915645,
        "RAAN(deg)": 119.9962195577423,
        "Satellite Name": "Test1 539",
        "Satellite Number": 539,
        "Semi-Major Axis(m)": 6980739.136638005,
        "Time(s)": 90
    },
    {
        "Altitude(m)": 605848.6222076298,
        "Argument of Periapsis(deg)": 0.0010418945913296407,
        "Eccentricity": 0.0,
        "Inclination(deg)": 60.0,
        "Latitude(deg)": -5.493320925015126,
        "Longitude(deg)": -157.22568407563287,
        "Mean Anomaly(deg)": 186.2010614546183,
        "RAAN(deg)": 119.99579950860256,
        "Satellite Name": "Test1 539",
        "Satellite Number": 539,
        "Semi-Major Axis(m)": 6980739.136638005,
        "Time(s)": 100
    },
    {
        "Altitude(m)": 605952.3171313795,
        "Argument of Periapsis(deg)": 0.0011460840504626045,
        "Eccentricity": 0.0,
        "Inclination(deg)": 60.0,
        "Latitude(deg)": -6.032649256474271,
        "Longitude(deg)": -156.95451447632124,
        "Mean Anomaly(deg)": 186.82116760008014,
        "RAAN(deg)": 119.99537945946281,
        "Satellite Name": "Test1 539",
        "Satellite Number": 539,
        "Semi-Major Axis(m)": 6980739.136638005,
        "Time(s)": 110
    },
    {
        "Altitude(m)": 606059.0434681542,
        "Argument of Periapsis(deg)": 0.0012502735095955685,
        "Eccentricity": 0.0,
        "Inclination(deg)": 60.0,
        "Latitude(deg)": -6.571773850255403,
        "Longitude(deg)": -156.68273512627405,
        "Mean Anomaly(deg)": 187.44127374554193,
        "RAAN(deg)": 119.99495941032308,
        "Satellite Name": "Test1 539",
        "Satellite Number": 539,
        "Semi-Major Axis(m)": 6980739.136638005,
        "Time(s)": 120
    },
    {
        "Altitude(m)": 606168.7752540966,
        "Argument of Periapsis(deg)": 0.0013544629687285324,
        "Eccentricity": 0.0,
        "Inclination(deg)": 60.0,
        "Latitude(deg)": -7.110676991826351,
        "Longitude(deg)": -156.41028904235776,
        "Mean Anomaly(deg)": 188.06137989100384,
        "RAAN(deg)": 119.99453936118333,
        "Satellite Name": "Test1 539",
        "Satellite Number": 539,
        "Semi-Major Axis(m)": 6980739.136638005,
        "Time(s)": 130
    },
    {
        "Altitude(m)": 606281.4850680139,
        "Argument of Periapsis(deg)": 0.0014586524278614966,
        "Eccentricity": 0.0,
        "Inclination(deg)": 60.0,
        "Latitude(deg)": -7.649340846053604,
        "Longitude(deg)": -156.13711935499103,
        "Mean Anomaly(deg)": 188.68148603646563,
        "RAAN(deg)": 119.9941193120436,
        "Satellite Name": "Test1 539",
        "Satellite Number": 539,
        "Semi-Major Axis(m)": 6980739.136638005,
        "Time(s)": 140
    },
    {
        "Altitude(m)": 606397.1440420465,
        "Argument of Periapsis(deg)": 0.0015628418869944607,
        "Eccentricity": 0.0,
        "Inclination(deg)": 60.0,
        "Latitude(deg)": -8.187747446274047,
        "Longitude(deg)": -155.86316876971736,
        "Mean Anomaly(deg)": 189.30159218192748,
        "RAAN(deg)": 119.99369926290385,
        "Satellite Name": "Test1 539",
        "Satellite Number": 539,
        "Semi-Major Axis(m)": 6980739.136638005,
        "Time(s)": 150
    },
    {
        "Altitude(m)": 606515.7218730377,
        "Argument of Periapsis(deg)": 0.0016670313461274247,
        "Eccentricity": 0.0,
        "Inclination(deg)": 60.0,
        "Latitude(deg)": -8.725878683186142,
        "Longitude(deg)": -155.5883790284047,
        "Mean Anomaly(deg)": 189.92169832738932,
        "RAAN(deg)": 119.99327921376411,
        "Satellite Name": "Test1 539",
        "Satellite Number": 539,
        "Semi-Major Axis(m)": 6980739.136638005,
        "Time(s)": 160
    },
    {
        "Altitude(m)": 606637.1868346318,
        "Argument of Periapsis(deg)": 0.0017712208052603888,
        "Eccentricity": 0.0,
        "Inclination(deg)": 60.0,
        "Latitude(deg)": -9.263716293543528,
        "Longitude(deg)": -155.31269188291515,
        "Mean Anomaly(deg)": 190.54180447285114,
        "RAAN(deg)": 119.99285916462436,
        "Satellite Name": "Test1 539",
        "Satellite Number": 539,
        "Semi-Major Axis(m)": 6980739.136638005,
        "Time(s)": 170
    },
    {
        "Altitude(m)": 606761.5057900468,
        "Argument of Periapsis(deg)": 0.001875410264393353,
        "Eccentricity": 0.0,
        "Inclination(deg)": 60.0,
        "Latitude(deg)": -9.80124184864006,
        "Longitude(deg)": -155.03604855547027,
        "Mean Anomaly(deg)": 191.16191061831293,
        "RAAN(deg)": 119.99243911548463,
        "Satellite Name": "Test1 539",
        "Satellite Number": 539,
        "Semi-Major Axis(m)": 6980739.136638005,
        "Time(s)": 180
    },
    {
        "Altitude(m)": 606888.6442055545,
        "Argument of Periapsis(deg)": 0.0019795997235263173,
        "Eccentricity": 0.0,
        "Inclination(deg)": 60.0,
        "Latitude(deg)": -10.338436742568335,
        "Longitude(deg)": -154.7583891985546,
        "Mean Anomaly(deg)": 191.78201676377475,
        "RAAN(deg)": 119.99201906634488,
        "Satellite Name": "Test1 539",
        "Satellite Number": 539,
        "Semi-Major Axis(m)": 6980739.136638005,
        "Time(s)": 190
    }
]